NORAD_CAT_ID,OBJECT_NAME,OBJECT_TYPE,EPOCH,MEAN_MOTION,ECCENTRICITY,INCLINATION,RA_OF_ASC_NODE,ARG_OF_PERICENTER,MEAN_ANOMALY,BSTAR,MEAN_MOTION_DOT,MEAN_MOTION_DDOT,TLE_LINE0,TLE_LINE1,TLE_LINE2,SEMIMAJOR_AXIS,PERIOD,APOGEE,PERIGEE,DECAYED
53178.0,STARLINK-4280,PAYLOAD,2024-05-02 05:44:38,15.08849141,0.0001242,53.2179,320.8227,80.2609,279.8524,0.00013162,1.808e-05,0.0,0 STARLINK-4280,1 53178U 22083AY  24123.23933390  .00001808  00000-0  13162-3 0  9996,2 53178  53.2179 320.8227 0001242  80.2609 279.8524 15.08849141 99221,6917.852,95.437,540.577,538.858,0.0
53178.0,STARLINK-4280,PAYLOAD,2024-05-02 20:03:06,15.08840321,0.0001164,53.2167,318.1462,77.4078,282.7044,-1.171e-05,-4.74e-06,0.0,0 STARLINK-4280,1 53178U 22083AY  24123.83549759 -.00000474  00000-0 -11710-4 0  9992,2 53178  53.2167 318.1462 0001164  77.4078 282.7044 15.08840321 99940,6917.879,95.438,540.55,538.939,0.0
53178.0,STARLINK-4280,PAYLOAD,2024-05-03 13:32:22,15.08822906,0.0001181,53.2162,314.8747,72.1617,287.9504,-0.00013558,-2.444e-05,0.0,0 STARLINK-4280,1 53178U 22083AY  24124.56414580 -.00002444  00000-0 -13558-3 0  9996,2 53178  53.2162 314.8747 0001181  72.1617 287.9504 15.08822906100056,6917.933,95.439,540.615,538.981,0.0
53178.0,STARLINK-4280,PAYLOAD,2024-05-03 19:53:54,15.08830193,0.0001269,53.2177,313.688,89.7019,270.4119,1.7835e-05,-4e-08,0.0,0 STARLINK-4280,1 53178U 22083AY  24124.82910804 -.00000004  00000-0  17835-4 0  9997,2 53178  53.2177 313.6880 0001269  89.7019 270.4119 15.08830193 99462,6917.91,95.438,540.653,538.897,0.0
53178.0,STARLINK-4280,PAYLOAD,2024-05-04 05:26:13,15.08836657,0.0001316,53.218,311.9035,87.0807,273.0336,7.2758e-05,8.7e-06,0.0,0 STARLINK-4280,1 53178U 22083AY  24125.22654490  .00000870  00000-0  72758-4 0  9993,2 53178  53.2180 311.9035 0001316  87.0807 273.0336 15.08836657100158,6917.891,95.438,540.666,538.845,0.0
53178.0,STARLINK-4280,PAYLOAD,2024-05-05 11:38:33,15.08843714,0.0001309,53.2171,306.2538,80.9436,279.1705,0.00033593,5.063e-05,0.0,0 STARLINK-4280,1 53178U 22083AY  24126.48510442  .00005063  00000-0  33593-3 0  9992,2 53178  53.2171 306.2538 0001309  80.9436 279.1705 15.08843714100345,6917.869,95.437,540.64,538.828,0.0
53178.0,STARLINK-4280,PAYLOAD,2024-05-05 19:35:28,15.08846625,0.0001339,53.217,304.767,81.3916,278.7228,0.00027585,4.106e-05,0.0,0 STARLINK-4280,1 53178U 22083AY  24126.81630408  .00004106  00000-0  27585-3 0  9995,2 53178  53.2170 304.7670 0001339  81.3916 278.7228 15.08846625 99767,6917.86,95.437,540.651,538.799,0.0
53178.0,STARLINK-4280,PAYLOAD,2024-05-06 11:29:19,15.08852104,0.0002139,53.2166,301.7931,83.23,276.8936,0.00031552,4.739e-05,0.0,0 STARLINK-4280,1 53178U 22083AY  24127.47870227  .00004739  00000-0  31552-3 0  9994,2 53178  53.2166 301.7931 0002139  83.2300 276.8936 15.08852104 99861,6917.843,95.437,541.188,538.229,0.0
53178.0,STARLINK-4280,PAYLOAD,2024-05-06 17:50:52,15.08843378,0.0001135,53.2169,300.6037,88.1221,271.9901,0.00014369,2e-05,0.0,0 STARLINK-4280,1 53178U 22083AY  24127.74366369  .00002000  00000-0  14369-3 0  9997,2 53178  53.2169 300.6037 0001135  88.1221 271.9901 15.08843378100538,6917.87,95.437,540.52,538.95,0.0
53178.0,STARLINK-4280,PAYLOAD,2024-05-07 04:58:33,15.08856871,0.0001282,53.2166,298.5201,97.229,262.8848,0.00032995,4.97e-05,0.0,0 STARLINK-4280,1 53178U 22083AY  24128.20733500  .00004970  00000-0  32995-3 0  9997,2 53178  53.2166 298.5201 0001282  97.2290 262.8848 15.08856871100602,6917.829,95.436,540.581,538.807,0.0
53178.0,STARLINK-4280,PAYLOAD,2024-05-07 11:20:06,15.08851563,0.0002404,53.2168,297.3327,77.6378,282.4883,0.00027874,4.152e-05,0.0,0 STARLINK-4280,1 53178U 22083AY  24128.47230097  .00004152  00000-0  27874-3 0  9991,2 53178  53.2168 297.3327 0002404  77.6378 282.4883 15.08851563100640,6917.845,95.437,541.373,538.047,0.0
53178.0,STARLINK-4280,PAYLOAD,2024-05-07 14:30:53,15.08830637,0.0001234,53.2164,296.7381,76.4607,283.6523,-0.00018493,-3.229e-05,0.0,0 STARLINK-4280,1 53178U 22083AY  24128.60478367 -.00003229  00000-0 -18493-3 0  9993,2 53178  53.2164 296.7381 0001234  76.4607 283.6523 15.08830637100037,6917.909,95.438,540.628,538.92,0.0
53178.0,STARLINK-4280,PAYLOAD,2024-05-07 17:41:39,15.08831779,0.000132,53.2162,296.1425,77.8731,282.2409,-7.1993e-05,-1.433e-05,0.0,0 STARLINK-4280,1 53178U 22083AY  24128.73726334 -.00001433  00000-0 -71993-4 0  9997,2 53178  53.2162 296.1425 0001320  77.8731 282.2409 15.08831779100684,6917.906,95.438,540.684,538.857,0.0
53178.0,STARLINK-4280,PAYLOAD,2024-05-08 14:21:40,15.08845069,0.0001278,53.2161,292.2758,77.829,282.2845,0.000643,9.962e-05,0.0,0 STARLINK-4280,1 53178U 22083AY  24129.59838631  .00009962  00000-0  64300-3 0  9992,2 53178  53.2161 292.2758 0001278  77.8290 282.2845 15.08845069100187,6917.865,95.437,540.614,538.846,0.0
53178.0,STARLINK-4280,PAYLOAD,2024-05-08 17:32:26,15.08848632,0.0001272,53.2168,291.6816,73.9249,286.1883,0.000876,0.00013684,0.0,0 STARLINK-4280,1 53178U 22083AY  24129.73086662  .00013684  00000-0  87600-3 0  9991,2 53178  53.2168 291.6816 0001272  73.9249 286.1883 15.08848632100833,6917.854,95.437,540.599,538.839,0.0
53178.0,STARLINK-4280,PAYLOAD,2024-05-09 11:01:41,15.08846127,0.0001223,53.2166,288.4095,71.6631,288.4494,0.00036243,5.486e-05,0.0,0 STARLINK-4280,1 53178U 22083AY  24130.45950585  .00005486  00000-0  36243-3 0  9994,2 53178  53.2166 288.4095 0001223  71.6631 288.4494 15.08846127100942,6917.862,95.437,540.573,538.881,0.0
53178.0,STARLINK-4280,PAYLOAD,2024-05-09 14:12:27,15.0884771,0.0001048,53.2152,287.8152,54.8471,305.2619,0.00037896,5.75e-05,0.0,0 STARLINK-4280,1 53178U 22083AY  24130.59198729  .00005750  00000-0  37896-3 0  9992,2 53178  53.2152 287.8152 0001048  54.8471 305.2619 15.08847710100333,6917.857,95.437,540.447,538.997,0.0
53178.0,STARLINK-4280,PAYLOAD,2024-05-09 17:23:14,15.08838039,0.0001097,53.2164,287.218,68.9624,291.1485,0.00010133,1.325e-05,0.0,0 STARLINK-4280,1 53178U 22083AY  24130.72446831  .00001325  00000-0  10133-3 0  9996,2 53178  53.2164 287.2180 0001097  68.9624 291.1485 15.08838039100980,6917.886,95.438,540.51,538.992,0.0
53178.0,STARLINK-4280,PAYLOAD,2024-05-10 02:55:32,15.08853696,0.0001118,53.2173,285.4366,82.9226,277.1893,0.00039994,6.085e-05,0.0,0 STARLINK-4280,1 53178U 22083AY  24131.12190310  .00006085  00000-0  39994-3 0  9993,2 53178  53.2173 285.4366 0001118  82.9226 277.1893 15.08853696101045,6917.839,95.437,540.477,538.93,0.0
53178.0,STARLINK-4280,PAYLOAD,2024-05-10 10:52:28,15.08831953,0.0001285,53.2167,283.9515,88.1219,271.992,-7.0587e-05,-1.411e-05,0.0,0 STARLINK-4280,1 53178U 22083AY  24131.45311175 -.00001411  00000-0 -70587-4 0  9997,2 53178  53.2167 283.9515 0001285  88.1219 271.9920 15.08831953101092,6917.905,95.438,540.659,538.881,0.0
53178.0,STARLINK-4280,PAYLOAD,2024-05-10 14:03:15,15.08833034,0.0001241,53.2172,283.3565,93.4092,266.7042,-4.1717e-05,-9.52e-06,0.0,0 STARLINK-4280,1 53178U 22083AY  24131.58559177 -.00000952  00000-0 -41717-4 0  9999,2 53178  53.2172 283.3565 0001241  93.4092 266.7042 15.08833034100488,6917.902,95.438,540.625,538.908,0.0
53178.0,STARLINK-4280,PAYLOAD,2024-05-10 17:14:01,15.08839049,0.0001156,53.2175,282.764,92.2447,267.8677,9.0642e-05,1.155e-05,0.0,0 STARLINK-4280,1 53178U 22083AY  24131.71807036  .00001155  00000-0  90642-4 0  9999,2 53178  53.2175 282.7640 0001156  92.2447 267.8677 15.08839049100505,6917.883,95.438,540.548,538.949,0.0
53178.0,STARLINK-4280,PAYLOAD,2024-05-11 09:07:50,15.08897796,0.0001124,53.2179,279.7849,81.4871,278.6248,0.0013534,0.00021351,0.0,0 STARLINK-4280,1 53178U 22083AY  24132.38044903  .00021351  00000-0  13534-2 0  9992,2 53178  53.2179 279.7849 0001124  81.4871 278.6248 15.08897796101230,6917.704,95.434,540.346,538.791,0.0
53178.0,STARLINK-4280,PAYLOAD,2024-05-11 17:04:45,15.08871331,0.0001752,53.2184,278.3012,90.8841,269.2352,-0.00023958,-4.102e-05,0.0,0 STARLINK-4280,1 53178U 22083AY  24132.71164234 -.00004102  00000-0 -23958-3 0  9998,2 53178  53.2184 278.3012 0001752  90.8841 269.2352 15.08871331101285,6917.785,95.436,540.862,538.438,0.0
53178.0,STARLINK-4280,PAYLOAD,2024-05-12 13:44:50,15.08763162,0.0001818,53.2169,274.4384,107.5403,252.5788,-0.0015746,-0.00025208,0.0,0 STARLINK-4280,1 53178U 22083AY  24133.57280510 -.00025208  00000-0 -15746-2 0  9994,2 53178  53.2169 274.4384 0001818 107.5403 252.5788 15.08763162100784,6918.115,95.442,541.238,538.723,0.0
53178.0,STARLINK-4280,PAYLOAD,2024-05-12 16:55:37,15.08829949,0.0001743,53.2164,273.8417,90.1871,269.9321,0.0020672,0.00032756,0.0,0 STARLINK-4280,1 53178U 22083AY  24133.70529515  .00032756  00000-0  20672-2 0  9998,2 53178  53.2164 273.8417 0001743  90.1871 269.9321 15.08829949101436,6917.911,95.438,540.982,538.57,0.0
53178.0,STARLINK-4280,PAYLOAD,2024-05-12 21:41:46,15.08848097,0.0001518,53.2165,272.9496,98.0886,262.0278,0.0017606,0.00027849,0.0,0 STARLINK-4280,1 53178U 22083AY  24133.90401300  .00027849  00000-0  17606-2 0  9991,2 53178  53.2165 272.9496 0001518  98.0886 262.0278 15.08848097100830,6917.856,95.437,540.771,538.671,0.0
53178.0,STARLINK-4280,PAYLOAD,2024-05-13 02:27:55,15.08852076,0.0001478,53.216,272.0571,103.232,256.8837,0.0014696,0.00023186,0.0,0 STARLINK-4280,1 53178U 22083AY  24134.10273074  .00023186  00000-0  14696-2 0  9995,2 53178  53.2160 272.0571 0001478 103.2320 256.8837 15.08852076100864,6917.843,95.437,540.731,538.686,0.0
53178.0,STARLINK-4280,PAYLOAD,2024-05-13 15:11:00,15.08881115,0.0001442,53.216,269.6781,101.5995,258.5159,0.0018528,0.00029356,0.0,0 STARLINK-4280,1 53178U 22083AY  24134.63264085  .00029356  00000-0  18528-2 0  9998,2 53178  53.2160 269.6781 0001442 101.5995 258.5159 15.08881115100940,6917.755,95.435,540.617,538.622,0.0
53178.0,STARLINK-4280,PAYLOAD,2024-05-14 08:40:13,15.08869829,8.7e-05,53.2159,266.4036,215.3151,144.7784,0.00089585,0.0001401,0.0,0 STARLINK-4280,1 53178U 22083AY  24135.36127056  .00014010  00000-0  89585-3 0  9998,2 53178  53.2159 266.4036 0000870 215.3151 144.7784 15.08869829101688,6917.789,95.436,540.256,539.052,0.0
